<?xml version="1.0" encoding="UTF-8"?>
<gpx version="1.1" creator="La Grange Fleurie draft routes" xmlns="http://www.topografix.com/GPX/1/1"><metadata><name>DRAFT - Full Escape</name><desc>Placeholder GPX for design preview only. Replace before publishing.</desc></metadata><trk><name>DRAFT - Full Escape</name><trkseg><trkpt lat="46.2920" lon="4.5940"><ele>420</ele></trkpt><trkpt lat="46.2200" lon="4.5900"><ele>720</ele></trkpt><trkpt lat="46.2920" lon="4.5940"><ele>420</ele></trkpt></trkseg></trk></gpx>
